{"fetched_at":"2026-06-14T08:17:21Z","count":15259,"tles":[{"name":"TERRA","line1":"1 25994U 99068A   26164.60549288  .00000372  00000+0  84721-4 0  9999","line2":"2 25994  97.9457 214.2937 0001301 202.9904 281.7027 14.61100584409089","category":"Other"},{"name":"AQUA","line1":"1 27424U 02022A   26164.65383666  .00000730  00000+0  15503-3 0  9993","line2":"2 27424  98.4276 133.8661 0001241  53.3746 119.8360 14.62153388282754","category":"Other"},{"name":"AURA","line1":"1 28376U 04026A   26164.63100009  .00000728  00000+0  15713-3 0  9992","line2":"2 28376  98.3416 121.0549 0001250  73.1466 286.9871 14.61324340165692","category":"Other"},{"name":"RESURS-DK 1","line1":"1 29228U 06021A   26164.59797958  .00002608  00000+0  15259-3 0  9990","line2":"2 29228  69.9338 348.8437 0006778 294.4297  65.6162 15.13204015102039","category":"Other"},{"name":"HAIYANG-1B","line1":"1 31113U 07010A   26164.57887548  .00000079  00000+0  45770-4 0  9990","line2":"2 31113  98.3493 146.5640 0012790 207.4691 152.5818 14.31026080   129","category":"Other"},{"name":"RADARSAT-2","line1":"1 32382U 07061A   26164.60923795 -.00000078  00000+0 -13330-4 0  9992","line2":"2 32382  98.5777 171.5925 0001297  81.6683 278.4647 14.29981001965445","category":"Other"},{"name":"THEOS","line1":"1 33396U 08049A   26164.65743780  .00000122  00000+0  76865-4 0  9994","line2":"2 33396  98.5578 222.0557 0001260  80.0725 280.0594 14.20132593917467","category":"Other"},{"name":"WORLDVIEW-1 (WV-1)","line1":"1 32060U 07041A   26164.61577429  .00006518  00000+0  27013-3 0  9998","line2":"2 32060  97.3872 284.4107 0002601  31.7164 328.4230 15.24230628 42333","category":"Other"},{"name":"COSMO-SKYMED 1","line1":"1 31598U 07023A   26164.65945752  .00002585  00000+0  22941-3 0  9990","line2":"2 31598  97.8842 356.4861 0001046  94.6743 265.4598 14.97083945 29261","category":"Other"},{"name":"COSMO-SKYMED 2","line1":"1 32376U 07059A   26164.65049615  .00000369  00000+0  52969-4 0  9999","line2":"2 32376  97.8885 348.2998 0001374  87.1426 272.9944 14.82152399  1488","category":"Other"},{"name":"TERRASAR-X","line1":"1 31698U 07026A   26164.30549450  .00000550  00000+0  29393-4 0  9990","line2":"2 31698  97.4448 172.0669 0001630  86.5072 273.6349 15.19146801 52630","category":"Other"},{"name":"YAOGAN-3","line1":"1 32289U 07055A   26164.63708749  .00002671  00000+0  27739-3 0  9990","line2":"2 32289  97.8155 194.5500 0001982  86.5893 273.5552 14.90770070  5340","category":"Other"},{"name":"CARTOSAT-2A","line1":"1 32783U 08021A   26164.66433440  .00000765  00000+0  10959-3 0  9997","line2":"2 32783  97.7641 213.4932 0012999 118.8495 241.4024 14.79234428978284","category":"Other"},{"name":"GOSAT (IBUKI)","line1":"1 33492U 09002A   26164.59288531  .00001071  00000+0  19742-3 0  9996","line2":"2 33492  98.0889 275.7190 0001467  82.1454 277.9917 14.67539177930934","category":"Other"},{"name":"DEIMOS-1","line1":"1 35681U 09041A   26164.65936477  .00000364  00000+0  60814-4 0  9998","line2":"2 35681  97.7392 322.0403 0001400 134.2010 225.9315 14.75233368906365","category":"Other"},{"name":"IRS-P5 (CARTOSAT-1)","line1":"1 28649U 05017A   26164.58864453  .00001239  00000+0  13051-3 0  9991","line2":"2 28649  97.5309 187.8164 0002679  84.3919 275.7606 14.91040793143286","category":"Other"},{"name":"SINAH 1","line1":"1 28893U 05043D   26164.56885581  .00000293  00000+0  65147-4 0  9997","line2":"2 28893  98.2855 298.8696 0013173 289.2498  70.7279 14.64155501 99994","category":"Other"},{"name":"DLR-TUBSAT","line1":"1 25757U 99029B   26164.57335849  .00000083  00000+0  32188-4 0  9994","line2":"2 25757  98.6695 159.9585 0014287   6.2008 353.9360 14.52426073432722","category":"Other"},{"name":"ARIRANG-2 (KOMPSAT-2)","line1":"1 29268U 06031A   26164.67356808  .00000061  00000+0  19806-4 0  9993","line2":"2 29268  97.8304 349.2907 0015943  84.7251 344.2164 14.64657267 60966","category":"Other"},{"name":"SHIYAN-1 (SY-1)","line1":"1 28220U 04012A   26164.53002658  .00013311  00000+0  41104-3 0  9990","line2":"2 28220  97.8697 242.3605 0005918  45.1549 315.0172 15.33673555210538","category":"Other"},{"name":"MAROC-TUBSAT","line1":"1 27004U 01056D   26164.49745985 -.00000021  00000+0  29069-4 0  9998","line2":"2 27004  99.8079 341.2875 0020211 150.4942 271.7689 13.70262358225688","category":"Other"},{"name":"GEOEYE 1","line1":"1 33331U 08042A   26164.53131986  .00000410  00000+0  85901-4 0  9993","line2":"2 33331  98.1236 238.5088 0005501  78.3973 281.7847 14.64722606949610","category":"Other"}]}